STARLINK-1100
1 44713U 19074A   24068.00000000  .00001234  00000-0  12345-4 0  9991
2 44713  53.0540  10.0000 0001000  10.0000   0.0000 15.06380000    01
STARLINK-1101
1 44714U 19074B   24068.00000000  .00001234  00000-0  12345-4 0  9992
2 44714  53.0540  10.0000 0001000  10.0000  36.0000 15.06380000    02
STARLINK-1102
1 44715U 19074C   24068.00000000  .00001234  00000-0  12345-4 0  9993
2 44715  53.0540  10.0000 0001000  10.0000  72.0000 15.06380000    03
STARLINK-1103
1 44716U 19074D   24068.00000000  .00001234  00000-0  12345-4 0  9994
2 44716  53.0540  10.0000 0001000  10.0000 108.0000 15.06380000    04
STARLINK-1104
1 44717U 19074E   24068.00000000  .00001234  00000-0  12345-4 0  9995
2 44717  53.0540  10.0000 0001000  10.0000 144.0000 15.06380000    05
STARLINK-1105
1 44718U 19074F   24068.00000000  .00001234  00000-0  12345-4 0  9996
2 44718  53.0540  10.0000 0001000  10.0000 180.0000 15.06380000    06
STARLINK-1106
1 44719U 19074G   24068.00000000  .00001234  00000-0  12345-4 0  9997
2 44719  53.0540  10.0000 0001000  10.0000 216.0000 15.06380000    07
STARLINK-1107
1 44720U 19074H   24068.00000000  .00001234  00000-0  12345-4 0  9998
2 44720  53.0540  10.0000 0001000  10.0000 252.0000 15.06380000    08
STARLINK-1108
1 44721U 19074I   24068.00000000  .00001234  00000-0  12345-4 0  9999
2 44721  53.0540  10.0000 0001000  10.0000 288.0000 15.06380000    09
STARLINK-1109
1 44722U 19074J   24068.00000000  .00001234  00000-0  12345-4 0  9990
2 44722  53.0540  10.0000 0001000  10.0000 324.0000 15.06380000    10